{"type": "FeatureCollection", "features": [ {"type": "Feature", "properties": {"norad_id": 41836, "name": "HIMAWARI-9", "group": "weather", "lat": -0.009187686476595814, "lon": -146.42929758009382, "alt_km": 35790.53738383377, "timestamp": "2025-12-22T22:44:20.593896+00:00", "meta": {"OBJECT_NAME": "HIMAWARI-9", "OBJECT_ID": "2016-064A", "EPOCH": "2025-12-22T13:50:05.574624", "MEAN_MOTION": 1.00268363, "ECCENTRICITY": 0.00015821, "INCLINATION": 0.0162, "RA_OF_ASC_NODE": 28.6262, "ARG_OF_PERICENTER": 306.4522, "MEAN_ANOMALY": 104.5911, "EPHEMERIS_TYPE": 0, "CLASSIFICATION_TYPE": "U", "NORAD_CAT_ID": 41836, "ELEMENT_SET_NO": 999, "REV_AT_EPOCH": 3343, "BSTAR": 0, "MEAN_MOTION_DOT": 0, "MEAN_MOTION_DDOT": 0}, "tle": {"line1": "1 41836U 16064A   25356.57645341  .00000000  00000+0  00000+0 0  9993", "line2": "2 41836   0.0162  28.6262 0001582 306.4522 104.5911  1.00268363 33430"}}, "geometry": {"type": "Point", "coordinates": [-146.42929758009382, -0.009187686476595814]}}, {"type": "Feature", "properties": {"norad_id": 41866, "name": "GOES 16", "group": "weather", "lat": -0.06390093927291061, "lon": -31.810958703893775, "alt_km": 35779.854198924164, "timestamp": "2025-12-22T22:44:20.593908+00:00", "meta": {"OBJECT_NAME": "GOES 16", "OBJECT_ID": "2016-071A", "EPOCH": "2025-12-22T11:50:45.502080", "MEAN_MOTION": 1.00271941, "ECCENTRICITY": 0.00030736, "INCLINATION": 0.0719, "RA_OF_ASC_NODE": 103.2078, "ARG_OF_PERICENTER": 163.3048, "MEAN_ANOMALY": 257.8083, "EPHEMERIS_TYPE": 0, "CLASSIFICATION_TYPE": "U", "NORAD_CAT_ID": 41866, "ELEMENT_SET_NO": 999, "REV_AT_EPOCH": 3333, "BSTAR": 0, "MEAN_MOTION_DOT": -6.9e-07, "MEAN_MOTION_DDOT": 0}, "tle": {"line1": "1 41866U 16071A   25356.49358220 -.00000069  00000+0  00000+0 0  9998", "line2": "2 41866   0.0719 103.2078 0003073 163.3048 257.8083  1.00271941 33333"}}, "geometry": {"type": "Point", "coordinates": [-31.810958703893775, -0.06390093927291061]}}, {"type": "Feature", "properties": {"norad_id": 41882, "name": "FENGYUN 4A", "group": "weather", "lat": 1.7073778293552813, "lon": -163.51226169611894, "alt_km": 35771.22471250779, "timestamp": "2025-12-22T22:44:20.593920+00:00", "meta": {"OBJECT_NAME": "FENGYUN 4A", "OBJECT_ID": "2016-077A", "EPOCH": "2025-12-19T13:51:06.687072", "MEAN_MOTION": 1.00266581, "ECCENTRICITY": 0.0004506, "INCLINATION": 1.866, "RA_OF_ASC_NODE": 82.3247, "ARG_OF_PERICENTER": 142.8816, "MEAN_ANOMALY": 194.7423, "EPHEMERIS_TYPE": 0, "CLASSIFICATION_TYPE": "U", "NORAD_CAT_ID": 41882, "ELEMENT_SET_NO": 999, "REV_AT_EPOCH": 3312, "BSTAR": 0, "MEAN_MOTION_DOT": -3.34e-06, "MEAN_MOTION_DDOT": 0}, "tle": {"line1": "1 41882U 16077A   25353.57716073 -.00000334  00000+0  00000+0 0  9997", "line2": "2 41882   1.8660  82.3247 0004506 142.8816 194.7423  1.00266581 33125"}}, "geometry": {"type": "Point", "coordinates": [-163.51226169611894, 1.7073778293552813]}}, {"type": "Feature", "properties": {"norad_id": 41884, "name": "CYGFM05", "group": "weather", "lat": 34.62430945261699, "lon": 79.22489294120543, "alt_km": 423.49010166830976, "timestamp": "2025-12-22T22:44:20.593959+00:00", "meta": {"OBJECT_NAME": "CYGFM05", "OBJECT_ID": "2016-078A", "EPOCH": "2025-12-22T08:23:26.578752", "MEAN_MOTION": 15.47975352, "ECCENTRICITY": 0.00108079, "INCLINATION": 34.9607, "RA_OF_ASC_NODE": 344.3416, "ARG_OF_PERICENTER": 266.9174, "MEAN_ANOMALY": 93.0311, "EPHEMERIS_TYPE": 0, "CLASSIFICATION_TYPE": "U", "NORAD_CAT_ID": 41884, "ELEMENT_SET_NO": 999, "REV_AT_EPOCH": 50125, "BSTAR": 0.00040236173, "MEAN_MOTION_DOT": 0.0002172, "MEAN_MOTION_DDOT": 0}, "tle": {"line1": "1 41884U 16078A   25356.34961318  .00021720  00000+0  40236-3 0  9992", "line2": "2 41884  34.9607 344.3416 0010807 266.9174  93.0311 15.47975352501250"}}, "geometry": {"type": "Point", "coordinates": [79.22489294120543, 34.62430945261699]}}, {"type": "Feature", "properties": {"norad_id": 41885, "name": "CYGFM04", "group": "weather", "lat": 34.06180119662741, "lon": 30.505289732162648, "alt_km": 413.2104890000501, "timestamp": "2025-12-22T22:44:20.593972+00:00", "meta": {"OBJECT_NAME": "CYGFM04", "OBJECT_ID": "2016-078B", "EPOCH": "2025-12-22T06:57:13.787424", "MEAN_MOTION": 15.50744918, "ECCENTRICITY": 0.00095893, "INCLINATION": 34.9356, "RA_OF_ASC_NODE": 319.2314, "ARG_OF_PERICENTER": 290.644, "MEAN_ANOMALY": 69.3254, "EPHEMERIS_TYPE": 0, "CLASSIFICATION_TYPE": "U", "NORAD_CAT_ID": 41885, "ELEMENT_SET_NO": 999, "REV_AT_EPOCH": 50142, "BSTAR": 0.00041684419, "MEAN_MOTION_DOT": 0.00024821, "MEAN_MOTION_DDOT": 0}, "tle": {"line1": "1 41885U 16078B   25356.28974291  .00024821  00000+0  41684-3 0  9993", "line2": "2 41885  34.9356 319.2314 0009589 290.6440  69.3254 15.50744918501422"}}, "geometry": {"type": "Point", "coordinates": [30.505289732162648, 34.06180119662741]}}, {"type": "Feature", "properties": {"norad_id": 41886, "name": "CYGFM02", "group": "weather", "lat": 20.390740027967798, "lon": 100.94230003028473, "alt_km": 413.09868623653256, "timestamp": "2025-12-22T22:44:20.593983+00:00", "meta": {"OBJECT_NAME": "CYGFM02", "OBJECT_ID": "2016-078C", "EPOCH": "2025-12-22T14:24:35.297856", "MEAN_MOTION": 15.52169465, "ECCENTRICITY": 0.00111762, "INCLINATION": 34.9445, "RA_OF_ASC_NODE": 315.3888, "ARG_OF_PERICENTER": 294.1654, "MEAN_ANOMALY": 65.79, "EPHEMERIS_TYPE": 0, "CLASSIFICATION_TYPE": "U", "NORAD_CAT_ID": 41886, "ELEMENT_SET_NO": 999, "REV_AT_EPOCH": 50160, "BSTAR": 0.00041141658, "MEAN_MOTION_DOT": 0.00025806, "MEAN_MOTION_DDOT": 0}, "tle": {"line1": "1 41886U 16078C   25356.60040854  .00025806  00000+0  41142-3 0  9992", "line2": "2 41886  34.9445 315.3888 0011176 294.1654  65.7900 15.52169465501604"}}, "geometry": {"type": "Point", "coordinates": [100.94230003028473, 20.390740027967798]}}, {"type": "Feature", "properties": {"norad_id": 41887, "name": "CYGFM01", "group": "weather", "lat": 9.623631356830561, "lon": 148.65758307197194, "alt_km": 419.86770805984725, "timestamp": "2025-12-22T22:44:20.593994+00:00", "meta": {"OBJECT_NAME": "CYGFM01", "OBJECT_ID": "2016-078D", "EPOCH": "2025-12-22T09:39:37.601856", "MEAN_MOTION": 15.4856694, "ECCENTRICITY": 0.00105029, "INCLINATION": 34.9439, "RA_OF_ASC_NODE": 346.277, "ARG_OF_PERICENTER": 259.7922, "MEAN_ANOMALY": 100.1615, "EPHEMERIS_TYPE": 0, "CLASSIFICATION_TYPE": "U", "NORAD_CAT_ID": 41887, "ELEMENT_SET_NO": 999, "REV_AT_EPOCH": 50120, "BSTAR": 0.00040213854, "MEAN_MOTION_DOT": 0.00022163, "MEAN_MOTION_DDOT": 0}, "tle": {"line1": "1 41887U 16078D   25356.40251854  .00022163  00000+0  40214-3 0  9997", "line2": "2 41887  34.9439 346.2770 0010502 259.7922 100.1615 15.48566940501205"}}, "geometry": {"type": "Point", "coordinates": [148.65758307197194, 9.623631356830561]}}, {"type": "Feature", "properties": {"norad_id": 41888, "name": "CYGFM08", "group": "weather", "lat": -33.806221727422965, "lon": -140.90767407671794, "alt_km": 412.38512735870063, "timestamp": "2025-12-22T22:44:20.594005+00:00", "meta": {"OBJECT_NAME": "CYGFM08", "OBJECT_ID": "2016-078E", "EPOCH": "2025-12-22T07:43:26.360832", "MEAN_MOTION": 15.49794125, "ECCENTRICITY": 0.00118989, "INCLINATION": 34.9467, "RA_OF_ASC_NODE": 329.6834, "ARG_OF_PERICENTER": 281.7617, "MEAN_ANOMALY": 78.177, "EPHEMERIS_TYPE": 0, "CLASSIFICATION_TYPE": "U", "NORAD_CAT_ID": 41888, "ELEMENT_SET_NO": 999, "REV_AT_EPOCH": 50142, "BSTAR": 0.00041801893, "MEAN_MOTION_DOT": 0.00024083, "MEAN_MOTION_DDOT": 0}, "tle": {"line1": "1 41888U 16078E   25356.32183288  .00024083  00000+0  41802-3 0  9991", "line2": "2 41888  34.9467 329.6834 0011898 281.7617  78.1770 15.49794125501427"}}, "geometry": {"type": "Point", "coordinates": [-140.90767407671794, -33.806221727422965]}}, {"type": "Feature", "properties": {"norad_id": 41890, "name": "CYGFM07", "group": "weather", "lat": -34.8175853174483, "lon": -140.71099499048142, "alt_km": 412.2622950307241, "timestamp": "2025-12-22T22:44:20.594016+00:00", "meta": {"OBJECT_NAME": "CYGFM07", "OBJECT_ID": "2016-078G", "EPOCH": "2025-12-22T07:41:22.754400", "MEAN_MOTION": 15.50386414, "ECCENTRICITY": 0.00098473, "INCLINATION": 34.9484, "RA_OF_ASC_NODE": 318.6199, "ARG_OF_PERICENTER": 296.6593, "MEAN_ANOMALY": 63.312, "EPHEMERIS_TYPE": 0, "CLASSIFICATION_TYPE": "U", "NORAD_CAT_ID": 41890, "ELEMENT_SET_NO": 999, "REV_AT_EPOCH": 50144, "BSTAR": 0.00041229816, "MEAN_MOTION_DOT": 0.00024237, "MEAN_MOTION_DDOT": 0}, "tle": {"line1": "1 41890U 16078G   25356.32040225  .00024237  00000+0  41230-3 0  9993", "line2": "2 41890  34.9484 318.6199 0009847 296.6593  63.3120 15.50386414501447"}}, "geometry": {"type": "Point", "coordinates": [-140.71099499048142, -34.8175853174483]}}, {"type": "Feature", "properties": {"norad_id": 41891, "name": "CYGFM03", "group": "weather", "lat": 34.64747027375779, "lon": 54.65074175029681, "alt_km": 415.7344552231925, "timestamp": "2025-12-22T22:44:20.594027+00:00", "meta": {"OBJECT_NAME": "CYGFM03", "OBJECT_ID": "2016-078H", "EPOCH": "2025-12-22T06:52:08.029920", "MEAN_MOTION": 15.50279642, "ECCENTRICITY": 0.00095974, "INCLINATION": 34.9439, "RA_OF_ASC_NODE": 320.7688, "ARG_OF_PERICENTER": 284.1615, "MEAN_ANOMALY": 75.804, "EPHEMERIS_TYPE": 0, "CLASSIFICATION_TYPE": "U", "NORAD_CAT_ID": 41891, "ELEMENT_SET_NO": 999, "REV_AT_EPOCH": 50141, "BSTAR": 0.0004120085, "MEAN_MOTION_DOT": 0.00024126, "MEAN_MOTION_DDOT": 0}, "tle": {"line1": "1 41891U 16078H   25356.28620405  .00024126  00000+0  41201-3 0  9998", "line2": "2 41891  34.9439 320.7688 0009597 284.1615  75.8040 15.50279642501414"}}, "geometry": {"type": "Point", "coordinates": [54.65074175029681, 34.64747027375779]}}]}